{"fetched_at":"2026-07-08T07:03:38.157Z","source":"https://celestrak.org/NORAD/elements/gp.php?GROUP=spire&FORMAT=JSON","constellation":"spire","records":[{"OBJECT_NAME":"LEMUR-2-LEIA-PHILIP","OBJECT_ID":"2025-052AN","EPOCH":"2026-07-07T12:26:50.658432","CLASSIFICATION_TYPE":"U","MEAN_MOTION":14.97376769,"ECCENTRICITY":0.00048895,"INCLINATION":97.6815,"RA_OF_ASC_NODE":80.1253,"ARG_OF_PERICENTER":138.7865,"MEAN_ANOMALY":221.3727,"EPHEMERIS_TYPE":0,"NORAD_CAT_ID":63246,"ELEMENT_SET_NO":999,"REV_AT_EPOCH":7171,"BSTAR":0.00017109045,"MEAN_MOTION_DOT":0.0000193,"MEAN_MOTION_DDOT":0},{"OBJECT_NAME":"LEMUR-2-LIA-MARTIN","OBJECT_ID":"2025-052AQ","EPOCH":"2026-07-06T15:33:07.566336","CLASSIFICATION_TYPE":"U","MEAN_MOTION":14.97976249,"ECCENTRICITY":0.00052032,"INCLINATION":97.6861,"RA_OF_ASC_NODE":79.773,"ARG_OF_PERICENTER":111.5295,"MEAN_ANOMALY":248.6482,"EPHEMERIS_TYPE":0,"NORAD_CAT_ID":63248,"ELEMENT_SET_NO":999,"REV_AT_EPOCH":7159,"BSTAR":0.00039684422,"MEAN_MOTION_DOT":0.00004626,"MEAN_MOTION_DDOT":0},{"OBJECT_NAME":"LEMUR-2-DELOITTE-1","OBJECT_ID":"2025-052BB","EPOCH":"2026-07-07T16:42:14.859648","CLASSIFICATION_TYPE":"U","MEAN_MOTION":14.97747072,"ECCENTRICITY":0.0002285,"INCLINATION":97.6883,"RA_OF_ASC_NODE":81.1366,"ARG_OF_PERICENTER":66.1516,"MEAN_ANOMALY":293.9945,"EPHEMERIS_TYPE":0,"NORAD_CAT_ID":63259,"ELEMENT_SET_NO":999,"REV_AT_EPOCH":7176,"BSTAR":0.00020879,"MEAN_MOTION_DOT":0.00002391,"MEAN_MOTION_DDOT":0},{"OBJECT_NAME":"LEMUR-2-EMERSONROSE","OBJECT_ID":"2025-052BD","EPOCH":"2026-07-07T04:24:37.806624","CLASSIFICATION_TYPE":"U","MEAN_MOTION":14.99240847,"ECCENTRICITY":0.00027484,"INCLINATION":97.6871,"RA_OF_ASC_NODE":81.2273,"ARG_OF_PERICENTER":73.814,"MEAN_ANOMALY":286.3386,"EPHEMERIS_TYPE":0,"NORAD_CAT_ID":63261,"ELEMENT_SET_NO":999,"REV_AT_EPOCH":7173,"BSTAR":0.00029728698,"MEAN_MOTION_DOT":0.00003566,"MEAN_MOTION_DDOT":0},{"OBJECT_NAME":"LEMUR-2-MARACHE-FRAN","OBJECT_ID":"2025-052BE","EPOCH":"2026-07-07T16:17:33.389088","CLASSIFICATION_TYPE":"U","MEAN_MOTION":15.00283494,"ECCENTRICITY":0.000454,"INCLINATION":97.6864,"RA_OF_ASC_NODE":82.074,"ARG_OF_PERICENTER":287.5282,"MEAN_ANOMALY":72.5445,"EPHEMERIS_TYPE":0,"NORAD_CAT_ID":63262,"ELEMENT_SET_NO":999,"REV_AT_EPOCH":7183,"BSTAR":0.00020052,"MEAN_MOTION_DOT":0.00002453,"MEAN_MOTION_DDOT":0},{"OBJECT_NAME":"LEMUR-2-THEFALCONER","OBJECT_ID":"2025-052BG","EPOCH":"2026-07-07T12:35:55.733568","CLASSIFICATION_TYPE":"U","MEAN_MOTION":14.97535872,"ECCENTRICITY":0.00008975,"INCLINATION":97.6846,"RA_OF_ASC_NODE":80.5658,"ARG_OF_PERICENTER":26.347,"MEAN_ANOMALY":333.7797,"EPHEMERIS_TYPE":0,"NORAD_CAT_ID":63264,"ELEMENT_SET_NO":999,"REV_AT_EPOCH":7173,"BSTAR":0.00025818791,"MEAN_MOTION_DOT":0.00002954,"MEAN_MOTION_DDOT":0},{"OBJECT_NAME":"LEMUR-2-UNTITLED-SC","OBJECT_ID":"2025-061A","EPOCH":"2026-07-07T12:24:59.630976","CLASSIFICATION_TYPE":"U","MEAN_MOTION":15.13613803,"ECCENTRICITY":0.0018398,"INCLINATION":97.5648,"RA_OF_ASC_NODE":163.7332,"ARG_OF_PERICENTER":189.2153,"MEAN_ANOMALY":170.8744,"EPHEMERIS_TYPE":0,"NORAD_CAT_ID":63351,"ELEMENT_SET_NO":999,"REV_AT_EPOCH":7066,"BSTAR":0.00011526,"MEAN_MOTION_DOT":0.00002011,"MEAN_MOTION_DDOT":0},{"OBJECT_NAME":"LEMUR-2-ESPERANZA","OBJECT_ID":"2025-061B","EPOCH":"2026-07-07T08:39:52.627392","CLASSIFICATION_TYPE":"U","MEAN_MOTION":15.13720454,"ECCENTRICITY":0.00180119,"INCLINATION":97.5652,"RA_OF_ASC_NODE":163.6759,"ARG_OF_PERICENTER":189.3073,"MEAN_ANOMALY":170.7827,"EPHEMERIS_TYPE":0,"NORAD_CAT_ID":63352,"ELEMENT_SET_NO":999,"REV_AT_EPOCH":7064,"BSTAR":0.00019115182,"MEAN_MOTION_DOT":0.00003389,"MEAN_MOTION_DDOT":0},{"OBJECT_NAME":"LEMUR-2-KREMPEL-BRO2","OBJECT_ID":"2025-061C","EPOCH":"2026-07-07T12:20:41.245728","CLASSIFICATION_TYPE":"U","MEAN_MOTION":15.14144682,"ECCENTRICITY":0.0019171,"INCLINATION":97.5701,"RA_OF_ASC_NODE":164.3879,"ARG_OF_PERICENTER":181.159,"MEAN_ANOMALY":178.96,"EPHEMERIS_TYPE":0,"NORAD_CAT_ID":63353,"ELEMENT_SET_NO":999,"REV_AT_EPOCH":7068,"BSTAR":0.00011515,"MEAN_MOTION_DOT":0.0000204,"MEAN_MOTION_DDOT":0},{"OBJECT_NAME":"LEMUR-2-THERMORAPTOR","OBJECT_ID":"2025-061D","EPOCH":"2026-07-07T10:18:08.397504","CLASSIFICATION_TYPE":"U","MEAN_MOTION":15.14226483,"ECCENTRICITY":0.00189309,"INCLINATION":97.5706,"RA_OF_ASC_NODE":164.3826,"ARG_OF_PERICENTER":180.3649,"MEAN_ANOMALY":179.7572,"EPHEMERIS_TYPE":0,"NORAD_CAT_ID":63354,"ELEMENT_SET_NO":999,"REV_AT_EPOCH":7067,"BSTAR":0.00014336375,"MEAN_MOTION_DOT":0.00002562,"MEAN_MOTION_DDOT":0},{"OBJECT_NAME":"LEMUR-2-NEUROSPICY","OBJECT_ID":"2025-061E","EPOCH":"2026-07-07T11:10:15.848544","CLASSIFICATION_TYPE":"U","MEAN_MOTION":15.14346479,"ECCENTRICITY":0.00166794,"INCLINATION":97.5635,"RA_OF_ASC_NODE":164.0292,"ARG_OF_PERICENTER":183.0672,"MEAN_ANOMALY":177.0461,"EPHEMERIS_TYPE":0,"NORAD_CAT_ID":63355,"ELEMENT_SET_NO":999,"REV_AT_EPOCH":7068,"BSTAR":0.00015088011,"MEAN_MOTION_DOT":0.00002707,"MEAN_MOTION_DDOT":0},{"OBJECT_NAME":"LEMUR-2-TILLINFINITY","OBJECT_ID":"2025-061F","EPOCH":"2026-07-07T08:39:33.657408","CLASSIFICATION_TYPE":"U","MEAN_MOTION":15.14927907,"ECCENTRICITY":0.00182493,"INCLINATION":97.562,"RA_OF_ASC_NODE":164.2297,"ARG_OF_PERICENTER":172.0497,"MEAN_ANOMALY":188.1027,"EPHEMERIS_TYPE":0,"NORAD_CAT_ID":63356,"ELEMENT_SET_NO":999,"REV_AT_EPOCH":7069,"BSTAR":0.00015038743,"MEAN_MOTION_DOT":0.00002745,"MEAN_MOTION_DDOT":0},{"OBJECT_NAME":"LEMUR-2-KREMPEL-BRO1","OBJECT_ID":"2025-061G","EPOCH":"2026-07-07T09:40:12.229248","CLASSIFICATION_TYPE":"U","MEAN_MOTION":15.14737364,"ECCENTRICITY":0.00188891,"INCLINATION":97.5621,"RA_OF_ASC_NODE":164.1821,"ARG_OF_PERICENTER":173.275,"MEAN_ANOMALY":186.8739,"EPHEMERIS_TYPE":0,"NORAD_CAT_ID":63357,"ELEMENT_SET_NO":999,"REV_AT_EPOCH":7069,"BSTAR":0.000160049,"MEAN_MOTION_DOT":0.00002911,"MEAN_MOTION_DDOT":0},{"OBJECT_NAME":"LEMUR-2-LANGER2SPACE","OBJECT_ID":"2025-061H","EPOCH":"2026-07-07T11:59:20.853888","CLASSIFICATION_TYPE":"U","MEAN_MOTION":15.14430042,"ECCENTRICITY":0.00166295,"INCLINATION":97.5624,"RA_OF_ASC_NODE":164.0841,"ARG_OF_PERICENTER":181.3139,"MEAN_ANOMALY":178.8052,"EPHEMERIS_TYPE":0,"NORAD_CAT_ID":63358,"ELEMENT_SET_NO":999,"REV_AT_EPOCH":7069,"BSTAR":0.00013255804,"MEAN_MOTION_DOT":0.00002376,"MEAN_MOTION_DDOT":0},{"OBJECT_NAME":"LEMUR-2-BALTO","OBJECT_ID":"2025-052BH","EPOCH":"2026-07-07T04:43:04.141344","CLASSIFICATION_TYPE":"U","MEAN_MOTION":15.00313404,"ECCENTRICITY":0.00056486,"INCLINATION":97.6926,"RA_OF_ASC_NODE":81.5775,"ARG_OF_PERICENTER":359.1139,"MEAN_ANOMALY":1.0073,"EPHEMERIS_TYPE":0,"NORAD_CAT_ID":63395,"ELEMENT_SET_NO":999,"REV_AT_EPOCH":7176,"BSTAR":0.00031219968,"MEAN_MOTION_DOT":0.00003856,"MEAN_MOTION_DDOT":0},{"OBJECT_NAME":"LEMUR-2-KRISH","OBJECT_ID":"2025-135AK","EPOCH":"2026-07-07T06:28:53.031936","CLASSIFICATION_TYPE":"U","MEAN_MOTION":14.96401488,"ECCENTRICITY":0.00017444,"INCLINATION":97.776,"RA_OF_ASC_NODE":303.0109,"ARG_OF_PERICENTER":100.781,"MEAN_ANOMALY":259.3608,"EPHEMERIS_TYPE":0,"NORAD_CAT_ID":64561,"ELEMENT_SET_NO":999,"REV_AT_EPOCH":5692,"BSTAR":0.00037657303,"MEAN_MOTION_DOT":0.0000421,"MEAN_MOTION_DDOT":0}]}
